GRBBETA                 
1 60237U 24128C   26137.48886597  .00002731  00000+0  19526-3 0  9997
2 60237  61.9901 323.9502 0044812 128.3151 232.1985 15.06365563101642
TRANSPORTER-11 OBJECT A 
1 60468U 24149A   26137.46748817  .00005946  00000+0  19275-3 0  9998
2 60468  97.3736 217.5052 0002540   1.0000 359.1246 15.32371706 97354
WARATAH SEED-1          
1 60469U 24149B   26137.48279190  .00009418  00000+0  27864-3 0  9995
2 60469  97.3694 218.0480 0001380  33.2727 326.8603 15.35119754 97403
PHISAT 2                
1 60470U 24149C   26137.45555130  .00004878  00000+0  16762-3 0  9995
2 60470  97.3762 216.8538 0001919  49.6222 310.5186 15.30577011 97292
LEMUR-2-TOMATOKECHUP    
1 60471U 24149D   26137.48220279  .00007675  00000+0  22590-3 0  9996
2 60471  97.3801 219.4670 0001582  43.5831 316.5537 15.35350613 97454
CONNECTA IOT-1          
1 60472U 24149E   26137.55262879  .00002822  00000+0  12198-3 0  9999
2 60472  97.3764 214.3664 0002978  58.2307 301.9220 15.23283325 97135
LOPEN                   
1 60473U 24149F   26137.51024777  .00010276  00000+0  27046-3 0  9999
2 60473  97.3782 220.6608 0001841  61.0523 299.0907 15.38742596 97544
ROCK                    
1 60474U 24149G   26137.49680430  .00009894  00000+0  26047-3 0  9995
2 60474  97.3778 220.6644 0001860  50.9849 309.1562 15.38746484 97549
CONNECTA IOT-3          
1 60475U 24149H   26137.44286056  .00002924  00000+0  12624-3 0  9990
2 60475  97.3739 214.0207 0003631  41.9673 318.1842 15.23293648 97120
QUBE                    
1 60476U 24149J   26137.50230716  .00015437  00000+0  32134-3 0  9991
2 60476  97.3780 223.3804 0001280  30.4029 329.7294 15.45703500 97721
WREN-1                  
1 60478U 24149L   26137.22321510  .00014349  00000+0  35815-3 0  9995
2 60478  97.3770 221.0416 0004202  34.1243 326.0272 15.40278958 97558
TOMORROW-S1             
1 60479U 24149M   26137.44734895  .00005207  00000+0  16972-3 0  9990
2 60479  97.3753 218.0273 0002759  34.3436 325.7984 15.32255738 97387
FLOCK 4BE-18            
1 60480U 24149N   26137.50274012  .00011693  00000+0  28728-3 0  9997
2 60480  97.3733 220.9364 0003382  31.9486 328.1965 15.40813092 97581
FLOCK 4BE-7             
1 60481U 24149P   26137.47669339  .00014980  00000+0  39000-3 0  9991
2 60481  97.3762 220.3159 0002809  43.2155 316.9310 15.38982035 97526
TOMORROW-S2             
1 60485U 24149T   26137.47831944  .00005494  00000+0  17883-3 0  9993
2 60485  97.3821 218.5180 0003560  50.2634 309.8921 15.32270177 97388
FLOCK 4BE-36            
1 60486U 24149U   26137.23213359  .00011580  00000+0  27632-3 0  9998
2 60486  97.3747 221.3144 0003796  44.2871 315.8679 15.41696726 97586
FLOCK 4BE-25            
1 60487U 24149V   26137.19141709  .00010062  00000+0  27152-3 0  9994
2 60487  97.3803 220.1519 0002437  53.7627 306.3843 15.37975908 97471
FLOCK 4BE-31            
1 60488U 24149W   26137.22325028  .00014514  00000+0  33289-3 0  9991
2 60488  97.3805 222.0808 0002913  55.9542 304.1982 15.42836186 97600
FLOCK 4BE-20            
1 60489U 24149X   26137.20426257  .00009010  00000+0  24955-3 0  9991
2 60489  97.3704 219.1231 0003814  42.9213 317.2328 15.37195023 97452
FLOCK 4BE-23            
1 60490U 24149Y   26137.18710536  .00010017  00000+0  28038-3 0  9991
2 60490  97.3785 219.4647 0003830  51.1662 308.9924 15.36835414 97436
FLOCK 4BE-15            
1 60491U 24149Z   26137.61488905  .00072967  00000+0  11639-2 0  9992
2 60491  97.3702 222.0025 0003250 135.2425 224.9090 15.52970693 97677
FLOCK 4BE-17            
1 60492U 24149AA  26137.47251474  .00011031  00000+0  28935-3 0  9999
2 60492  97.3778 220.6220 0003009  42.8809 317.2671 15.38825377 97531
NUSAT-50 (NANCY ROMAN)  
1 60493U 24149AB  26137.55172534  .00006204  00000+0  22104-3 0  9996
2 60493  97.3791 219.0342 0002020 327.0300  33.0814 15.29282745 97448
FLOCK 4BE-22            
1 60494U 24149AC  26137.48120895  .00010712  00000+0  26888-3 0  9994
2 60494  97.3736 220.7751 0003776  45.8588 314.2968 15.40180979 97570
FLOCK 4BE-34            
1 60495U 24149AD  26137.49864581  .00009780  00000+0  24542-3 0  9991
2 60495  97.3783 221.5950 0004166  55.6336 304.5304 15.40215148 97604
TYCHE                   
1 60496U 24149AE  26137.57618243  .00003053  00000+0  12227-3 0  9997
2 60496  97.3757 215.8029 0003271  54.8574 305.2971 15.25803486 97238
FLOCK 4BE-32            
1 60497U 24149AF  26137.48541649  .00012402  00000+0  30227-3 0  9991
2 60497  97.3725 221.1074 0003951  51.5342 308.6258 15.41036981 97608
NUSAT-48 (HENRIETTA LE*)
1 60498U 24149AG  26137.48346470  .00006706  00000+0  23421-3 0  9995
2 60498  97.3909 219.1392 0004546  44.4802 315.6803 15.29897968 97448
FLOCK 4BE-30            
1 60499U 24149AH  26137.45127237  .00068365  00000+0  12429-2 0  9995
2 60499  97.3791 222.1166 0002037 163.8063 196.3254 15.49301029 97005
